OBJECT_NAME,OBJECT_ID,EPOCH,MEAN_MOTION,ECCENTRICITY,INCLINATION,RA_OF_ASC_NODE,ARG_OF_PERICENTER,MEAN_ANOMALY,EPHEMERIS_TYPE,CLASSIFICATION_TYPE,NORAD_CAT_ID,ELEMENT_SET_NO,REV_AT_EPOCH,BSTAR,MEAN_MOTION_DOT,MEAN_MOTION_DDOT
GUOWANG TEST OBJECT B,2026-120B,2026-06-04T06:41:24.658368,15.39121370,.00091004,55.0006,85.8667,296.4175,63.5919,0,U,69321,999,70,.6938966E-3,.27005E-3,0
GUOWANG TEST OBJECT C,2026-120C,2026-06-04T11:20:38.584320,15.39427828,.00097321,54.9977,84.9896,304.1612,55.8493,0,U,69322,999,73,.51567777E-3,.20158E-3,0
GUOWANG TEST OBJECT D,2026-120D,2026-06-04T15:59:40.712352,15.39704502,.00080029,55.0029,84.1123,301.7889,58.2360,0,U,69323,999,76,.80800046E-3,.32137E-3,0
QIANFAN-163,2026-121A,2026-06-04T19:02:38.927904,13.60350658,.00188806,89.0162,301.7692,224.0603,135.9049,0,U,69325,999,47,.15178043E-4,.24E-6,0
QIANFAN-164,2026-121B,2026-06-03T23:37:07.301856,13.60503556,.00181939,89.0158,301.8507,228.0170,131.9437,0,U,69326,999,36,.14663628E-3,.122E-5,0
SZ-22 MODULE,2025-272C,2026-06-04T22:45:01.755936,15.59719201,.00083565,41.4810,36.4880,350.2706,9.7969,0,U,69328,999,141,.27598981E-3,.2247E-3,0
